DMSP 5D-3 F16 (USA 172) 
1 28054U 03048A   26108.95501545  .00000037  00000+0  42883-4 0  9993
2 28054  98.9942 132.3789 0006258 322.1642  83.7850 14.14475583161119
METEOSAT-9 (MSG-2)      
1 28912U 05049B   26108.94450476  .00000130  00000+0  00000+0 0  9998
2 28912   9.2292  54.7359 0000217 352.3446 185.6243  1.00270900  6406
DMSP 5D-3 F17 (USA 191) 
1 29522U 06050A   26108.98403342  .00000053  00000+0  49837-4 0  9993
2 29522  98.7402 116.7621 0009279 220.0199 140.0292 14.14980825  4055
FENGYUN 3A              
1 32958U 08026A   26108.27698084  .00000041  00000+0  40163-4 0  9996
2 32958  98.6848  50.2439 0007805 305.5769  54.4679 14.19557894926904
GOES 14                 
1 35491U 09033A   26108.87274003 -.00000007  00000+0  00000+0 0  9991
2 35491   1.5370  83.7228 0001576 302.6330 309.8533  1.00114635  5991
DMSP 5D-3 F18 (USA 210) 
1 35951U 09057A   26108.95112933  .00000206  00000+0  12948-3 0  9998
2 35951  98.9013  89.8610 0012144  62.0959 298.1443 14.14861873851211
EWS-G2 (GOES 15)        
1 36411U 10008A   26108.89747441  .00000027  00000+0  00000+0 0  9992
2 36411   1.1203  83.9421 0003587  23.9211 125.4956  1.00271354 59045
COMS 1                  
1 36744U 10032A   26108.89006993 -.00000338  00000+0  00000+0 0  9994
2 36744   4.6522  76.1533 0000924 297.2351 282.1809  1.00272224 50492
FENGYUN 3B              
1 37214U 10059A   26108.98162132  .00000206  00000+0  13015-3 0  9991
2 37214  98.9682 154.7283 0021995 357.5371 119.9789 14.14828581799054
SUOMI NPP               
1 37849U 11061A   26108.92051036  .00000058  00000+0  48588-4 0  9992
2 37849  98.7918  50.2141 0002577 116.5633 243.5807 14.19504201750035
METEOSAT-10 (MSG-3)     
1 38552U 12035B   26108.72217809  .00000001  00000+0  00000+0 0  9996
2 38552   4.5317  61.2605 0002165 290.4204 115.3297  1.00274867 50266
METOP-B                 
1 38771U 12049A   26108.91995943  .00000059  00000+0  46800-4 0  9993
2 38771  98.6561 161.5861 0003142 139.1409 221.0004 14.21431164704847
INSAT-3D                
1 39216U 13038B   26108.89041660 -.00000334  00000+0  00000+0 0  9996
2 39216   1.7728  83.2524 0001299 254.2963 319.4931  1.00268416 46484
FENGYUN 3C              
1 39260U 13052A   26108.96036603  .00000055  00000+0  48822-4 0  9998
2 39260  98.4945  85.5691 0014364 189.3828 170.7080 14.15740848650187
METEOR-M 2              
1 40069U 14037A   26108.94718435 -.00000253  00000+0 -96291-4 0  9994
2 40069  98.5077  86.7975 0005096 198.2246 161.8750 14.21442959610906
HIMAWARI-8              
1 40267U 14060A   26108.93401928 -.00000271  00000+0  00000+0 0  9992
2 40267   0.0273 101.4669 0000773 257.1893 325.2837  1.00273514 42168
FENGYUN 2G              
1 40367U 14090A   26108.88452324 -.00000297  00000+0  00000+0 0  9994
2 40367   5.4883  73.5154 0003029 144.7827  46.8558  1.00275935 41409
METEOSAT-11 (MSG-4)     
1 40732U 15034A   26108.93799681  .00000071  00000+0  00000+0 0  9994
2 40732   3.0537  71.4185 0001735 296.1687 186.7724  1.00280527  6621
ELEKTRO-L 2             
1 41105U 15074A   26108.71923141 -.00000110  00000+0  00000+0 0  9994
2 41105   6.5442  71.2391 0002308 254.4729 125.5663  1.00271036 37911
INSAT-3DR               
1 41752U 16054A   26108.97302750 -.00000073  00000+0  00000+0 0  9994
2 41752   0.0942  85.1948 0011938 195.7930 350.3948  1.00270428 35225
HIMAWARI-9              
1 41836U 16064A   26108.93399899 -.00000271  00000+0  00000+0 0  9994
2 41836   0.0452 108.6717 0000983 297.1811 278.1988  1.00270911 34612
GOES 16                 
1 41866U 16071A   26108.91529005 -.00000087  00000+0  00000+0 0  9992
2 41866   0.1924  85.0712 0001613 242.2829 104.4834  1.00271338 34507
FENGYUN 4A              
1 41882U 16077A   26108.98622856 -.00000352  00000+0  00000+0 0  9996
2 41882   2.1717  80.8736 0008205 140.0706 104.9887  1.00270514 34338
CYGFM05                 
1 41884U 16078A   26108.87201778  .00020359  00000+0  30339-3 0  9993
2 41884  34.9577 292.5882 0008094 312.4293  47.5745 15.54096215519514
CYGFM04                 
1 41885U 16078B   26108.82146430  .00025838  00000+0  32965-3 0  9996
2 41885  34.9330 263.3777 0006896 352.2330   7.8287 15.58248549519729
CYGFM02                 
1 41886U 16078C   26108.72872721  .00030787  00000+0  35933-3 0  9992
2 41886  34.9414 260.0221 0007991 352.5090   7.5515 15.60546430519863
CYGFM01                 
1 41887U 16078D   26108.88499700  .00021173  00000+0  30869-3 0  9994
2 41887  34.9407 294.0149 0007770 306.3957  53.6049 15.54689502519467
CYGFM08                 
1 41888U 16078E   26108.87452532  .00024321  00000+0  32531-3 0  9992
2 41888  34.9437 275.1041 0009011 334.5862  25.4418 15.56980496519713
CYGFM07                 
1 41890U 16078G   26108.83715647  .00024968  00000+0  33313-3 0  9996
2 41890  34.9452 263.7414 0007379 351.4547   8.6051 15.57060248519736
CYGFM03                 
1 41891U 16078H   26108.80812534  .00024480  00000+0  32666-3 0  9996
2 41891  34.9409 265.8928 0006668 338.7125  21.3321 15.57065503519700
FENGYUN 3D              
1 43010U 17072A   26108.94825589 -.00000233  00000+0 -88388-4 0  9990
2 43010  99.0088  82.3145 0001006 171.2868 188.8325 14.19725779436580
NOAA 20 (JPSS-1)        
1 43013U 17073A   26108.93431321  .00000053  00000+0  45897-4 0  9996
2 43013  98.7738  48.9334 0002162  82.8568 277.2853 14.19546069436062
GOES 17                 
1 43226U 18022A   26108.91832339 -.00000178  00000+0  00000+0 0  9990
2 43226   0.7856  86.5175 0000824 257.8477 103.7698  1.00270516 29839
FENGYUN 2H              
1 43491U 18050A   26108.95169020 -.00000123  00000+0  00000+0 0  9999
2 43491   2.8779  79.7442 0001745 155.8589  33.2449  1.00274882 28846
METOP-C                 
1 43689U 18087A   26108.94239140  .00000066  00000+0  50013-4 0  9997
2 43689  98.6690 169.6160 0001209  47.4518 312.6761 14.21509801386419
GEO-KOMPSAT-2A          
1 43823U 18100A   26108.89015660 -.00000340  00000+0  00000+0 0  9998
2 43823   0.0587  66.0152 0001719 356.7928 232.9116  1.00272644 27032
METEOR-M2 2             
1 44387U 19038A   26108.95655144 -.00000155  00000+0 -47045-4 0  9999
2 44387  98.9124  95.3768 0001437 140.6450 219.4833 14.24348070352861
ARKTIKA-M 1             
1 47719U 21016A   26108.17937168 -.00000080  00000+0  00000+0 0  9994
2 47719  63.2206  66.2812 7264714 269.6529  15.0038  2.00611233 37582
FENGYUN 3E              
1 49008U 21062A   26109.00935325 -.00000286  00000+0 -11393-3 0  9994
2 49008  98.7505 113.0754 0000471 241.3643 118.7485 14.19897624248181
GOES 18                 
1 51850U 22021A   26108.76630939  .00000101  00000+0  00000+0 0  9996
2 51850   0.0085  60.4621 0000434  35.5189 249.7860  1.00273320  5992
NOAA 21 (JPSS-2)        
1 54234U 22150A   26108.89810312  .00000032  00000+0  35579-4 0  9994
2 54234  98.7027  48.6940 0002173  36.8398 323.2927 14.19554247178134
METEOSAT-12 (MTG-I1)    
1 54743U 22170C   26108.93600346 -.00000004  00000+0  00000+0 0  9996
2 54743   0.7151  20.9232 0001124 321.9726 200.8692  1.00267617 12386
TIANMU-1 03             
1 55973U 23039A   26108.90709385  .00014145  00000+0  29599-3 0  9995
2 55973  97.5211 280.6404 0001891 328.7750  31.3386 15.45573542171678
TIANMU-1 04             
1 55974U 23039B   26108.91828567  .00014553  00000+0  29890-3 0  9998
2 55974  97.5148 279.8050 0002523 316.3977  43.7072 15.46113077171686
TIANMU-1 05             
1 55975U 23039C   26108.95000416  .00014614  00000+0  30633-3 0  9993
2 55975  97.5193 280.3214 0002170 359.9606   0.1642 15.45514554171668
TIANMU-1 06             
1 55976U 23039D   26108.91849784  .00014547  00000+0  29949-3 0  9992
2 55976  97.5201 280.8666 0002323 349.0884  11.0314 15.46043128171687
FENGYUN 3G              
1 56232U 23055A   26108.97961962  .00023347  00000+0  38626-3 0  9995
2 56232  49.9930 291.3113 0005748 290.7351  69.3000 15.52025212170804
METEOR-M2 3             
1 57166U 23091A   26108.93752865 -.00000013  00000+0  13372-4 0  9996
2 57166  98.6134 165.1130 0003694   0.8101 359.3084 14.24041602146082
TIANMU-1 07             
1 57399U 23101A   26108.95689763  .00004907  00000+0  17535-3 0  9993
2 57399  97.2644 160.9970 0002562  42.0509 318.0928 15.29277424152590
TIANMU-1 08             
1 57400U 23101B   26108.59714944  .00000159  00000+0  81591-5 0  9996
2 57400  97.2636 160.4226 0003050 356.5714   3.5505 15.29191772152539
TIANMU-1 09             
1 57401U 23101C   26108.97363102  .00005380  00000+0  19184-3 0  9993
2 57401  97.2592 160.2388 0003008  35.6786 324.4655 15.29305640152593
TIANMU-1 10             
1 57402U 23101D   26108.94094846  .00005358  00000+0  19145-3 0  9999
2 57402  97.2670 161.1952 0003703   9.3722 350.7587 15.29241005152587
FENGYUN 3F              
1 57490U 23111A   26108.99454581  .00000034  00000+0  36335-4 0  9995
2 57490  98.6860 180.0982 0000807 105.7452 254.3813 14.19928352140466
ARKTIKA-M 2             
1 58584U 23198A   26105.45009400  .00000213  00000+0  00000+0 0  9993
2 58584  63.2109 161.3400 6886040 267.6312  18.8487  2.00607933 17067
TIANMU-1 11             
1 58645U 23205A   26108.93279909  .00004593  00000+0  17925-3 0  9992
2 58645  97.3490 131.4355 0008230 201.9869 158.1018 15.26376616128482
TIANMU-1 12             
1 58646U 23205B   26108.96694244  .00004494  00000+0  17580-3 0  9996
2 58646  97.3479 131.2378 0007126 181.4341 178.6878 15.26319505128477
TIANMU-1 13             
1 58647U 23205C   26108.93093343  .00004790  00000+0  18688-3 0  9996
2 58647  97.3506 131.4589 0008018 164.6110 195.5374 15.26371581128463
TIANMU-1 14             
1 58648U 23205D   26108.91618662  .00004640  00000+0  18123-3 0  9990
2 58648  97.3441 130.6770 0008585 169.8223 190.3191 15.26343950128465
TIANMU-1 19             
1 58660U 23208A   26108.94499749  .00007828  00000+0  26685-3 0  9996
2 58660  97.4438 225.0092 0005852 153.6292 206.5248 15.30631336128267
TIANMU-1 20             
1 58661U 23208B   26108.96349006  .00007785  00000+0  25575-3 0  9998
2 58661  97.4378 225.6021 0007738 164.9285 195.2188 15.31819010128356
TIANMU-1 21             
1 58662U 23208C   26108.90736076  .00009008  00000+0  27632-3 0  9996
2 58662  97.4436 227.9784 0007799 159.8942 200.2609 15.33965240128470
TIANMU-1 22             
1 58663U 23208D   26108.90815383  .00006775  00000+0  23458-3 0  9996
2 58663  97.4432 224.9553 0004069 170.1814 189.9507 15.30185748128260
TIANMU-1 15             
1 58700U 24004A   26108.91339168  .00004970  00000+0  19385-3 0  9995
2 58700  97.4673 295.1164 0006887 185.5481 174.5682 15.26378467126738
TIANMU-1 16             
1 58701U 24004B   26108.96147252  .00005002  00000+0  19492-3 0  9998
2 58701  97.4619 294.4596 0005289 184.8107 175.3082 15.26417192126745
TIANMU-1 17             
1 58702U 24004C   26108.81365234  .00005931  00000+0  23162-3 0  9995
2 58702  97.4647 294.7794 0005050 190.4318 169.6816 15.26266899126717
TIANMU-1 18             
1 58703U 24004D   26108.92967529  .00004935  00000+0  19259-3 0  9998
2 58703  97.4665 295.1171 0003982 179.2302 180.8944 15.26381503126731
INSAT-3DS               
1 58990U 24033A   26108.96641905 -.00000152  00000+0  00000+0 0  9997
2 58990   0.0726  84.7684 0001811 294.8420 257.4666  1.00271277 46479
METEOR-M2 4             
1 59051U 24039A   26108.95533720 -.00000007  00000+0  16650-4 0  9998
2 59051  98.6967  69.0139 0006872 350.9185   9.1868 14.22423058110846
GOES 19                 
1 60133U 24119A   26108.92118340 -.00000244  00000+0  00000+0 0  9994
2 60133   0.0049 291.0179 0000410 148.9440  23.5054  1.00270781  6373
FENGYUN 3H              
1 65815U 25219A   26108.56762417  .00000027  00000+0  32990-4 0  9994
2 65815  98.6734  50.5081 0000709  96.9586 263.1672 14.19942433 28920
